OBJECT_NAME,OBJECT_ID,EPOCH,MEAN_MOTION,ECCENTRICITY,INCLINATION,RA_OF_ASC_NODE,ARG_OF_PERICENTER,MEAN_ANOMALY,EPHEMERIS_TYPE,CLASSIFICATION_TYPE,NORAD_CAT_ID,ELEMENT_SET_NO,REV_AT_EPOCH,BSTAR,MEAN_MOTION_DOT,MEAN_MOTION_DDOT
SAUDISAT 1C (SO-50),2002-058C,2026-06-13T15:34:17.052672,14.83040079,.0075334,64.5509,139.9331,263.1310,96.1222,0,U,27607,999,26393,.13345E-3,.986E-5,0
SAUDISAT 2,2004-025F,2026-06-13T20:51:43.555968,14.56682278,.0023716,98.5507,164.7654,308.9122,50.9960,0,U,28371,999,16526,.66872E-4,.25E-5,0
SAUDISAT 3,2007-012B,2026-06-13T20:36:20.995776,14.71423962,.0013475,98.1455,115.2569,235.2858,124.7080,0,U,31118,999,2725,.46608E-4,.238E-5,0
PISAT,2016-059B,2026-06-13T20:59:12.994080,14.68978534,.0028119,97.8179,165.4696,213.6485,146.2936,0,U,41784,999,51925,.14676E-3,.817E-5,0
FLYING LAPTOP,2017-042G,2026-06-13T20:27:46.171872,15.01129924,.0019471,97.4666,320.5145,132.5077,227.7796,0,U,42831,999,48595,.45518E-3,.5797E-4,0
SALSAT,2020-068K,2026-06-13T19:25:47.720640,15.29755280,.000829,97.8845,167.6684,322.4274,37.6385,0,U,46495,999,31484,.28306E-3,.8083E-4,0
